STARLINK-1309           
1 45414U 20019BG  20086.91667824  .00254376  34457-4  70601-3 0  9990
2 45414  53.0037 214.4742 0071644  79.7889 340.9820 15.88910495  1706
STARLINK-1316           
1 45415U 20019BH  20086.91667824  .00413725  74742-4  10954-2 0  9991
2 45415  53.0044 214.4547 0072565  79.6242 351.6814 15.89562016  1719
STARLINK-1318           
1 45416U 20019BJ  20086.91667824  .00496203  10326-3  13709-2 0  9992
2 45416  53.0043 214.4727 0070771  79.7712 342.7238 15.88990875  1706
STARLINK-1286           
1 45417U 20019BK  20086.91667824 -.00061712  11935-4 -24956-3 0  9993
2 45417  53.0035 214.7162 0048904  78.4273 226.9477 15.82507275  1974
STARLINK-1299           
1 45418U 20019BL  20086.91667824  .00130933  17240-4  37594-3 0  9991
2 45418  53.0037 214.4882 0071300  79.7860 334.0889 15.88563048  1722
STARLINK-1308           
1 45419U 20019BM  20086.91667824 -.00075822  12497-4 -30811-3 0  9993
2 45419  53.0031 214.7595 0053382  78.8704 205.2334 15.82272143  1718
FALCON 9 DEB            
1 45420U 20019BN  20086.76912959  .00355500  11377-4  35185-3 0  9997
2 45420  53.0035 215.0748 0104364  80.2088 281.0707 16.00127173  1952
FALCON 9 DEB            
1 45421U 20019BP  20086.70389672  .00368371  11391-4  36488-3 0  9995
2 45421  53.0022 215.3767 0100380  81.4503 279.7885 16.00783741  1941
FALCON 9 DEB            
1 45422U 20019BQ  20086.76122155  .00380541  11420-4  35905-3 0  9992
2 45422  53.0017 215.0136 0097155  78.7954 282.3978 16.01959926  1952
FALCON 9 DEB            
1 45423U 20019BR  20086.76092824  .00374544  11417-4  35409-3 0  9993
2 45423  53.0019 215.0105 0097540  79.3383 281.8613 16.01872086  1953
ONEWEB-0066             
1 45424U 20020A   20086.71271292  .00002416  00000-0  60408-4 0  9995
2 45424  87.3983 137.1343 0021917 277.1767  82.6995 15.39290912   761
ONEWEB-0067             
1 45425U 20020B   20088.20840932  .00002269  00000-0  56845-4 0  9991
2 45425  87.4009 136.6015 0022351 270.8848  88.9846 15.39187908   994
ONEWEB-0080             
1 45426U 20020C   20088.14598770  .00002251  00000-0  57451-4 0  9990
2 45426  87.3999 136.6259 0024701 275.5772  84.2665 15.38560321   970
ONEWEB-0090             
1 45427U 20020D   20088.14645019  .00002189  00000-0  56023-4 0  9994
2 45427  87.3971 136.6225 0024741 276.6786  83.1653 15.38448256   972
ONEWEB-0061             
1 45428U 20020E   20088.47228266  .00002161  00000-0  55546-4 0  9991
2 45428  87.4013 136.5127 0024849 276.6348  83.2078 15.38310857  1039
ONEWEB-0081             
1 45429U 20020F   20088.47275603  .00002167  00000-0  55898-4 0  9995
2 45429  87.3984 136.5090 0024907 277.7362  82.1064 15.38202064  1031
ONEWEB-0069             
1 45430U 20020G   20088.21412838  .00002100  00000-0  54834-4 0  9998
2 45430  87.3989 136.6038 0024457 283.4542  76.3986 15.37818688   980
ONEWEB-0031             
1 45431U 20020H   20088.47494584  .00002105  00000-0  55210-4 0  9999
2 45431  87.3994 136.5091 0024002 282.9889  76.8685 15.37698626  1024
ONEWEB-0027             
1 45432U 20020J   20088.54054275  .00002119  00000-0  55826-4 0  9995
2 45432  87.3988 136.4903 0023560 283.3429  76.5198 15.37580767  1035
ONEWEB-0064             
1 45433U 20020K   20088.15056120  .00002036  00000-0  53826-4 0  9990
2 45433  87.3991 136.6264 0023127 285.7630  74.1073 15.37454418   972
ONEWEB-0018             
1 45434U 20020L   20088.54236353  .00002082  00000-0  55647-4 0  9996
2 45434  87.3983 136.4886 0021675 284.5188  75.3661 15.37166083  1046
ONEWEB-0083             
1 45435U 20020M   20088.21729879  .00002098  00000-0  56317-4 0  9993
2 45435  87.4013 136.6065 0021339 285.1436  74.7457 15.37060190   994
ONEWEB-0095             
1 45436U 20020N   20088.54344663  .00002059  00000-0  55517-4 0  9992
2 45436  87.3969 136.4881 0020870 282.6200  77.2719 15.36919057  1048
ONEWEB-0092             
1 45437U 20020P   20088.41368373  .00002071  00000-0  56042-4 0  9991
2 45437  87.4000 136.5368 0020528 282.3293  77.5662 15.36812009  1012
ONEWEB-0085             
1 45438U 20020Q   20088.54427517  .00002055  00000-0  55746-4 0  9994
2 45438  87.3995 136.4902 0020912 279.4660  80.4230 15.36729648  1032
ONEWEB-0096             
1 45439U 20020R   20088.41454340  .00002039  00000-0  55492-4 0  9995
2 45439  87.4008 136.5406 0021168 278.8411  81.0446 15.36610961  1011
ONEWEB-0037             
1 45440U 20020S   20088.54534366  .00001998  00000-0  54572-4 0  9999
2 45440  87.3988 136.4888 0021443 277.0008  82.8806 15.36484750  1037
ONEWEB-0042             
1 45441U 20020T   20088.41558451  .00001982  00000-0  54330-4 0  9992
2 45441  87.4001 136.5391 0021707 276.4206  83.4575 15.36367663  1012
ONEWEB-0098             
1 45442U 20020U   20088.54697549  .00001954  00000-0  53926-4 0  9998
2 45442  87.3998 136.4932 0023210 274.8979  84.9624 15.36110648  1017
ONEWEB-0055             
1 45443U 20020V   20088.41718921  .00001963  00000-0  54368-4 0  9994
2 45443  87.3976 136.5395 0023701 275.8294  84.0258 15.35992386   990
ONEWEB-0093             
1 45444U 20020W   20088.41775520  .00001950  00000-0  54190-4 0  9992
2 45444  87.4009 136.5397 0024238 276.2580  83.5911 15.35859869   998
ONEWEB-0029             
1 45445U 20020X   20088.41823663  .00001922  00000-0  53582-4 0  9998
2 45445  87.3986 136.5400 0024706 276.5745  83.2695 15.35747233   990
ONEWEB-0068             
1 45446U 20020Y   20088.15827521  .00001944  00000-0  54459-4 0  9995
2 45446  87.4001 136.6335 0025322 279.6952  80.1441 15.35580768   956
ONEWEB-0046             
1 45447U 20020Z   20088.15877067  .00001924  00000-0  54083-4 0  9997
2 45447  87.3975 136.6300 0025362 280.8578  78.9820 15.35460106   959
ONEWEB-0063             
1 45448U 20020AA  20088.41998124  .00001916  00000-0  54080-4 0  9993
2 45448  87.4014 136.5437 0025355 280.9431  78.8969 15.35339513   990
ONEWEB-0019             
1 45449U 20020AB  20088.42050780  .00001862  00000-0  52724-4 0  9995
2 45449  87.3988 136.5401 0025425 282.1284  77.7120 15.35216225   990
ONEWEB-0094             
1 45450U 20020AC  20088.16074327  .00001853  00000-0  52901-4 0  9998
2 45450  87.3994 136.6344 0024773 285.9738  73.8786 15.34980229   958
ONEWEB-0087             
1 45451U 20020AD  20088.55244979  .00001822  00000-0  52227-4 0  9991
2 45451  87.4002 136.4943 0024261 284.8505  75.0060 15.34855784  1019
ONEWEB-0082             
1 45452U 20020AE  20088.55294162  .00001837  00000-0  52871-4 0  9992
2 45452  87.3989 136.4978 0023799 285.2980  74.5642 15.34743337  1018
ONEWEB-0050             
1 45453U 20020AF  20088.55350668  .00001785  00000-0  51571-4 0  9995
2 45453  87.3997 136.4959 0023302 285.9231  73.9453 15.34613690  1014
ONEWEB-0034             
1 45454U 20020AG  20088.42354517  .00001821  00000-0  52841-4 0  9991
2 45454  87.3991 136.5422 0022552 284.9753  74.9002 15.34506968   995
ONEWEB-0060             
1 45455U 20020AH  20088.55446476  .00001767  00000-0  51439-4 0  9993
2 45455  87.4021 136.4991 0022228 283.4439  76.4335 15.34393795  1018
ONEWEB-0086             
1 45456U 20020AJ  20088.42460099  .00001779  00000-0  52030-4 0  9998
2 45456  87.3977 136.5414 0021856 282.8775  77.0035 15.34259473   995
ONEWEB-0088             
1 45457U 20020AK  20088.42507661  .00001797  00000-0  52778-4 0  9995
2 45457  87.4007 136.5443 0021553 281.8884  77.9951 15.34148272   997
YAOGAN-30 R             
1 45460U 20021A   20088.49077198 -.00054681  00000-0 -58430-2 0  9995
2 45460  34.9943 187.5274 0007922   9.7483 350.3287 14.88331487   654
YAOGAN-30 S             
1 45461U 20021B   20088.55601280 -.00001677  00000-0 -16600-3 0  9999
2 45461  34.9953 187.1069 0008801 306.2712  53.6505 14.90465512   635
YAOGAN-30 T             
1 45462U 20021C   20088.35497929  .00000264  00000-0  29280-4 0  9999
2 45462  34.9983 188.3058 0008634 303.9099  56.0837 14.90505548   602
CZ-2C R/B               
1 45463U 20021D   20088.59846840  .00001157  00000-0  38019-4 0  9998
2 45463  34.6825 185.0360 0150779 104.0782 257.6736 15.21369359   703
TDO-2 SPACECRAFT        
1 45464U 20022A   20087.29241302 -.00000093  00000-0  00000+0 0  9991
2 45464  26.4980 318.9837 7282322 179.9623 357.3555  2.30488966    16
AEHF-6 (USA 298)        
1 45465U 20022B   20087.59062433 -.00000094  00000-0  00000+0 0  9992
2 45465  13.7066 318.8501 4035919 179.8701 132.4305  1.69599249    01
ATLAS 5 CENTAUR R/B     
1 45466U 20022C   20087.58452728 -.00000093  00000-0  00000+0 0  9991
2 45466  13.4303 318.6675 4148430 180.3608 132.0087  1.71700651    06
